NORAD_CAT_ID,OBJECT_NAME,OBJECT_TYPE,EPOCH,MEAN_MOTION,ECCENTRICITY,INCLINATION,RA_OF_ASC_NODE,ARG_OF_PERICENTER,MEAN_ANOMALY,BSTAR,MEAN_MOTION_DOT,MEAN_MOTION_DDOT,TLE_LINE0,TLE_LINE1,TLE_LINE2,SEMIMAJOR_AXIS,PERIOD,APOGEE,PERIGEE,DECAYED
49155.0,STARLINK-3060,PAYLOAD,2023-07-30 02:20:14,14.98331554,0.0002743,70.0015,138.8081,263.4775,96.6071,0.00027751,3.22e-05,0.0,0 STARLINK-3060,1 49155U 21082AB  23211.09739040  .00003220  00000-0  27751-3 0  9990,2 49155  70.0015 138.8081 0002743 263.4775  96.6071 14.98331554105208,6950.188,96.107,573.96,570.147,0.0
49155.0,STARLINK-3060,PAYLOAD,2023-07-31 02:22:13,14.98403393,0.0003345,70.0014,136.2819,285.9568,74.1222,-0.0013119,-0.00015741,0.0,0 STARLINK-3060,1 49155U 21082AB  23212.09876931 -.00015741  00000-0 -13119-2 0  9997,2 49155  70.0014 136.2819 0003345 285.9568  74.1222 14.98403393105352,6949.966,96.102,574.156,569.506,0.0
49155.0,STARLINK-3060,PAYLOAD,2023-07-31 05:34:31,14.98335236,0.0002696,70.0015,135.9465,262.8273,97.2579,3.5715e-05,3.33e-06,0.0,0 STARLINK-3060,1 49155U 21082AB  23212.23230951  .00000333  00000-0  35715-4 0  9996,2 49155  70.0015 135.9465 0002696 262.8273  97.2579 14.98335236105374,6950.177,96.107,573.915,570.168,0.0
49155.0,STARLINK-3060,PAYLOAD,2023-08-01 05:36:32,14.98332526,0.0002621,70.0013,133.4212,264.5466,95.5395,2.9227e-05,2.56e-06,0.0,0 STARLINK-3060,1 49155U 21082AB  23213.23370972  .00000256  00000-0  29227-4 0  9990,2 49155  70.0013 133.4212 0002621 264.5466  95.5395 14.98332526105529,6950.185,96.107,573.872,570.228,0.0
49155.0,STARLINK-3060,PAYLOAD,2023-08-02 00:50:09,14.98325211,0.000269,70.0011,131.4014,262.3272,97.7582,1.4359e-06,-7.6e-07,0.0,0 STARLINK-3060,1 49155U 21082AB  23214.03483572 -.00000076  00000-0  14359-5 0  9992,2 49155  70.0011 131.4014 0002690 262.3272  97.7582 14.98325211105640,6950.208,96.107,573.942,570.203,0.0
49155.0,STARLINK-3060,PAYLOAD,2023-08-02 18:27:37,14.98332624,0.0002868,70.0007,129.5487,270.3098,89.7733,0.00012405,1.388e-05,0.0,0 STARLINK-3060,1 49155U 21082AB  23214.76918856  .00001388  00000-0  12405-3 0  9994,2 49155  70.0007 129.5487 0002868 270.3098  89.7733 14.98332624105756,6950.185,96.107,574.043,570.056,0.0
49155.0,STARLINK-3060,PAYLOAD,2023-08-03 18:29:39,14.98325226,0.0002784,70.0008,127.0243,265.5238,94.5603,5.2491e-05,5.33e-06,0.0,0 STARLINK-3060,1 49155U 21082AB  23215.77059470  .00000533  00000-0  52491-4 0  9995,2 49155  70.0008 127.0243 0002784 265.5238  94.5603 14.98325226105906,6950.208,96.107,574.008,570.138,0.0
49155.0,STARLINK-3060,PAYLOAD,2023-08-05 02:32:19,14.98338914,0.0002998,70.0002,123.658,270.3691,89.7124,9.5318e-05,1.045e-05,0.0,0 STARLINK-3060,1 49155U 21082AB  23217.10578596  .00001045  00000-0  95318-4 0  9993,2 49155  70.0002 123.6580 0002998 270.3691  89.7124 14.98338914106105,6950.165,96.106,574.114,569.947,0.0
49155.0,STARLINK-3060,PAYLOAD,2023-08-05 18:33:40,14.98330826,0.0002886,70.0005,121.9745,273.7902,86.2927,0.00018077,2.065e-05,0.0,0 STARLINK-3060,1 49155U 21082AB  23217.77338752  .00002065  00000-0  18077-3 0  9993,2 49155  70.0005 121.9745 0002886 273.7902  86.2927 14.98330826106208,6950.19,96.107,574.061,570.05,0.0
49155.0,STARLINK-3060,PAYLOAD,2023-08-06 10:35:01,14.98320527,0.0002574,70.0011,120.2909,275.4224,84.6641,0.00020036,2.298e-05,0.0,0 STARLINK-3060,1 49155U 21082AB  23218.44099481  .00002298  00000-0  20036-3 0  9997,2 49155  70.0011 120.2909 0002574 275.4224  84.6641 14.98320527106302,6950.222,96.108,573.876,570.298,0.0
49155.0,STARLINK-3060,PAYLOAD,2023-08-07 01:00:15,14.9831825,0.0002634,70.001,118.7786,264.4585,95.6274,-0.00014628,-1.837e-05,0.0,0 STARLINK-3060,1 49155U 21082AB  23219.04184531 -.00001837  00000-0 -14628-3 0  9995,2 49155  70.0010 118.7786 0002634 264.4585  95.6274 14.98318250106394,6950.229,96.108,573.925,570.264,0.0
49155.0,STARLINK-3060,PAYLOAD,2023-08-07 10:37:03,14.98321205,0.0002624,70.0012,117.7689,264.6959,95.39,1.1872e-05,4.9e-07,0.0,0 STARLINK-3060,1 49155U 21082AB  23219.44240192  .00000049  00000-0  11872-4 0  9996,2 49155  70.0012 117.7689 0002624 264.6959  95.3900 14.98321205106457,6950.22,96.108,573.909,570.261,0.0
49155.0,STARLINK-3060,PAYLOAD,2023-08-07 18:37:43,14.98332085,0.0002995,70.0001,116.9255,269.1256,90.956,-4.729e-06,-1.49e-06,0.0,0 STARLINK-3060,1 49155U 21082AB  23219.77619444 -.00000149  00000-0 -47290-5 0  9999,2 49155  70.0001 116.9255 0002995 269.1256  90.9560 14.98332085106503,6950.186,96.107,574.133,569.97,0.0
49155.0,STARLINK-3060,PAYLOAD,2023-08-08 10:39:03,14.98340066,0.0002942,70.0003,115.2427,271.5295,88.5527,6.0743e-05,6.32e-06,0.0,0 STARLINK-3060,1 49155U 21082AB  23220.44378812  .00000632  00000-0  60743-4 0  9998,2 49155  70.0003 115.2427 0002942 271.5295  88.5527 14.98340066106605,6950.162,96.106,574.072,569.982,0.0
49155.0,STARLINK-3060,PAYLOAD,2023-08-08 17:03:35,14.98329215,0.0002969,70.0002,114.5694,270.6701,89.4118,0.00031788,3.702e-05,0.0,0 STARLINK-3060,1 49155U 21082AB  23220.71083104  .00003702  00000-0  31788-3 0  9992,2 49155  70.0002 114.5694 0002969 270.6701  89.4118 14.98329215106646,6950.195,96.107,574.124,569.997,0.0
49155.0,STARLINK-3060,PAYLOAD,2023-08-09 02:40:23,14.98337945,0.0002953,70.0002,113.5593,270.2857,89.7964,0.00036638,4.282e-05,0.0,0 STARLINK-3060,1 49155U 21082AB  23221.11138534  .00004282  00000-0  36638-3 0  9998,2 49155  70.0002 113.5593 0002953 270.2857  89.7964 14.98337945106702,6950.168,96.106,574.086,569.981,0.0
49155.0,STARLINK-3060,PAYLOAD,2023-08-09 10:41:04,14.98331467,0.0002853,70.0005,112.7158,268.8422,91.241,0.00022204,2.557e-05,0.0,0 STARLINK-3060,1 49155U 21082AB  23221.44519115  .00002557  00000-0  22204-3 0  9999,2 49155  70.0005 112.7158 0002853 268.8422  91.2410 14.98331467106755,6950.188,96.107,574.036,570.07,0.0
49155.0,STARLINK-3060,PAYLOAD,2023-08-11 02:44:25,14.98343117,0.0003114,69.9998,108.509,270.3309,89.7493,1.6207e-05,1e-06,0.0,0 STARLINK-3060,1 49155U 21082AB  23223.11418078  .00000100  00000-0  16207-4 0  9990,2 49155  69.9998 108.5090 0003114 270.3309  89.7493 14.98343117107001,6950.152,96.106,574.182,569.853,0.0
49155.0,STARLINK-3060,PAYLOAD,2023-08-11 09:08:57,14.98333403,0.000283,70.0001,107.8353,275.3127,84.7709,4.5936e-05,4.55e-06,0.0,0 STARLINK-3060,1 49155U 21082AB  23223.38122639  .00000455  00000-0  45936-4 0  9998,2 49155  70.0001 107.8353 0002830 275.3127  84.7709 14.98333403107046,6950.182,96.107,574.014,570.08,0.0
49155.0,STARLINK-3060,PAYLOAD,2023-08-12 09:10:59,14.98309449,0.0003012,69.9997,105.3112,265.424,94.6575,0.00052022,6.116e-05,0.0,0 STARLINK-3060,1 49155U 21082AB  23224.38263368  .00006116  00000-0  52022-3 0  9997,2 49155  69.9997 105.3112 0003012 265.4240  94.6575 14.98309449107192,6950.256,96.108,574.215,570.028,0.0
49155.0,STARLINK-3060,PAYLOAD,2023-08-12 18:47:47,14.98332079,0.0002957,69.9996,104.3013,269.1955,90.8865,2.4309e-05,1.97e-06,0.0,0 STARLINK-3060,1 49155U 21082AB  23224.78318657  .00000197  00000-0  24309-4 0  9994,2 49155  69.9996 104.3013 0002957 269.1955  90.8865 14.98332079107253,6950.186,96.107,574.107,569.996,0.0
49155.0,STARLINK-3060,PAYLOAD,2023-08-13 18:49:46,14.98342303,0.0003009,69.9996,101.7765,269.2407,90.8407,0.00023951,2.767e-05,0.0,0 STARLINK-3060,1 49155U 21082AB  23225.78457136  .00002767  00000-0  23951-3 0  9997,2 49155  69.9996 101.7765 0003009 269.2407  90.8407 14.98342303107400,6950.155,96.106,574.111,569.929,0.0
49155.0,STARLINK-3060,PAYLOAD,2023-08-14 01:14:18,14.98349612,0.0003038,69.9996,101.1029,268.6689,91.4122,0.00026021,3.015e-05,0.0,0 STARLINK-3060,1 49155U 21082AB  23226.05160537  .00003015  00000-0  26021-3 0  9992,2 49155  69.9996 101.1029 0003038 268.6689  91.4122 14.98349612107449,6950.132,96.106,574.109,569.886,0.0
49155.0,STARLINK-3060,PAYLOAD,2023-08-15 01:16:21,14.98326866,0.0003051,69.9996,98.5779,271.196,88.8849,-3.1381e-05,-4.67e-06,0.0,0 STARLINK-3060,1 49155U 21082AB  23227.05302570 -.00000467  00000-0 -31381-4 0  9994,2 49155  69.9996  98.5779 0003051 271.1960  88.8849 14.98326866107594,6950.203,96.107,574.188,569.947,0.0
49155.0,STARLINK-3060,PAYLOAD,2023-08-16 01:18:21,14.98338648,0.000308,69.9995,96.0528,271.6076,88.473,-9.9515e-06,-2.12e-06,0.0,0 STARLINK-3060,1 49155U 21082AB  23228.05441725 -.00000212  00000-0 -99515-5 0  9993,2 49155  69.9995  96.0528 0003080 271.6076  88.4730 14.98338648107746,6950.166,96.106,574.172,569.89,0.0
49155.0,STARLINK-3060,PAYLOAD,2023-08-16 14:07:26,14.9832539,0.0003055,69.9992,94.7064,273.2415,86.8395,0.00021989,2.531e-05,0.0,0 STARLINK-3060,1 49155U 21082AB  23228.58850313  .00002531  00000-0  21989-3 0  9990,2 49155  69.9992  94.7064 0003055 273.2415  86.8395 14.98325390107828,6950.207,96.107,574.195,569.949,0.0
49155.0,STARLINK-3060,PAYLOAD,2023-08-18 01:22:23,14.98336961,0.0003022,69.9997,91.0036,272.102,87.9793,0.00017063,1.944e-05,0.0,0 STARLINK-3060,1 49155U 21082AB  23230.05721944  .00001944  00000-0  17063-3 0  9997,2 49155  69.9997  91.0036 0003022 272.1020  87.9793 14.98336961108041,6950.171,96.107,574.137,569.936,0.0
49155.0,STARLINK-3060,PAYLOAD,2023-08-18 07:46:56,14.98327939,0.0002983,69.9993,90.3306,270.0372,90.0445,0.00028765,3.341e-05,0.0,0 STARLINK-3060,1 49155U 21082AB  23230.32426424  .00003341  00000-0  28765-3 0  9996,2 49155  69.9993  90.3306 0002983 270.0372  90.0445 14.98327939108089,6950.199,96.107,574.138,569.991,0.0
49155.0,STARLINK-3060,PAYLOAD,2023-08-19 17:25:46,14.98329435,0.0003052,69.9988,86.7957,272.0109,88.0701,2.0654e-06,-6.8e-07,0.0,0 STARLINK-3060,1 49155U 21082AB  23231.72622706 -.00000068  00000-0  20654-5 0  9997,2 49155  69.9988  86.7957 0003052 272.0109  88.0701 14.98329435108290,6950.195,96.107,574.181,569.938,0.0
49155.0,STARLINK-3060,PAYLOAD,2023-08-20 17:27:46,14.98332023,0.000309,69.999,84.2703,271.4516,88.6289,0.00017687,2.018e-05,0.0,0 STARLINK-3060,1 49155U 21082AB  23232.72762266  .00002018  00000-0  17687-3 0  9990,2 49155  69.9990  84.2703 0003090 271.4516  88.6289 14.98332023108443,6950.187,96.107,574.199,569.904,0.0
